<?xml version="1.0" encoding="UTF-8"?>
<kml xmlns="http://www.opengis.net/kml/2.2">
  <Document>
    <name>Invalid geometry sample</name>
    <Placemark>
      <name>Valid field</name>
      <Polygon><outerBoundaryIs><LinearRing><coordinates>
        77.5900,12.9700 77.5920,12.9700 77.5920,12.9720 77.5900,12.9720 77.5900,12.9700
      </coordinates></LinearRing></outerBoundaryIs></Polygon>
    </Placemark>
    <Placemark>
      <name>Unclosed plot</name>
      <Polygon><outerBoundaryIs><LinearRing><coordinates>
        77.5930,12.9700 77.5950,12.9700 77.5950,12.9720 77.5930,12.9720
      </coordinates></LinearRing></outerBoundaryIs></Polygon>
    </Placemark>
    <Placemark>
      <name>Bow-tie boundary</name>
      <Polygon><outerBoundaryIs><LinearRing><coordinates>
        77.5960,12.9700 77.5980,12.9720 77.5980,12.9700 77.5960,12.9720 77.5960,12.9700
      </coordinates></LinearRing></outerBoundaryIs></Polygon>
    </Placemark>
    <Placemark>
      <name>Pump house</name>
      <Point><coordinates>77.5905,12.9735</coordinates></Point>
      <Polygon><outerBoundaryIs><LinearRing><coordinates>
        77.5900,12.9730 77.5910,12.9730 77.5910,12.9740 77.5900,12.9740 77.5900,12.9730
      </coordinates></LinearRing></outerBoundaryIs></Polygon>
    </Placemark>
    <Placemark>
      <name>Borewell</name>
      <Point><coordinates>77.5940,12.9740</coordinates></Point>
    </Placemark>
  </Document>
</kml>
